[{"model": "restaurant.restaurant", "pk": 1, "fields": {"name": "Lilly Jo", "category": "cafe", "country": "Switzerland", "street": "Pfingstweidstrasse 16", "city": "Z\u00fcrich", "ZIP": "8005", "website": "lilly-jo.ch", "phone": "+41 43 543 63 51", "opening_hours": "Mon 7:00 am - 5:00 pm\t\r\nTue\t7:00 am - 5:00 pm\t\r\nWed 7:00 am - 5:00 pm\t\r\nThu\t7:00 am - 5:00 pm\t\r\nFri 7:00 am - 5:00 pm\tOpen now\r\nSat\tClosed\t\r\nSun\tClosed", "image": "restaurant/Lilly_jo.jpg", "credit_card": false, "take_reservation": true, "kids_menu": true, "user": 2}}, {"model": "restaurant.restaurant", "pk": 2, "fields": {"name": "Frau Gerolds Garten", "category": "fast_food", "country": "Switzerland", "street": "Geroldstrasse 23", "city": "Z\u00fcrich", "ZIP": "8005", "website": "geroldgarten.ch", "phone": "+41439603707", "opening_hours": "Mon 11:00 am - 12:00 am\t\r\nTue\t11:00 am - 12:00 am\t\r\nWed 11:00 am - 12:00 am\t\r\nThu\t11:00 am - 12:00 am\t\r\nFri\t11:00 am - 12:00 am\r\nSat\t11:00 am - 12:00 am\t\r\nSun\t12:00 pm - 10:00 pm", "image": "restaurant/Frau_Gerolds_Garten.jpg", "credit_card": false, "take_reservation": true, "kids_menu": false, "user": 2}}, {"model": "restaurant.restaurant", "pk": 3, "fields": {"name": "naanu", "category": "restaurant", "country": "Switzerland", "street": "Pfingstweidstrasse 104", "city": "Z\u00fcrich", "ZIP": "8005", "website": "naanu.ch", "phone": "+4144 2711012", "opening_hours": "Mon 9:00 am - 5:00 pm\t\r\nTue 9:00 am - 5:00 pm\t\r\nWed 9:00 am - 5:00 pm\t\r\nThu\t9:00 am - 2:30 pm and 5:00 pm - 10:00 pm\t\r\nFri\t9:00 am - 2:30 pm and 5:00 pm - 10:00 pm\r\nSat\t5:00 pm - 11:00 pm\t\r\nSun\tClosed", "image": "restaurant/nanu.jpg", "credit_card": true, "take_reservation": false, "kids_menu": false, "user": 2}}, {"model": "restaurant.restaurant", "pk": 4, "fields": {"name": "The Bite", "category": "fast_food", "country": "Switzerland", "street": "Brauerstrasse 15", "city": "Z\u00fcrich", "ZIP": "8004", "website": "thebite.ch", "phone": "+41442423000", "opening_hours": "Mon\tClosed\t\r\nTue\t11:30 am - 1:30 pm and 6:00 pm - 10:00 pm\t\r\nWed 11:30 am - 1:30 pm and 6:00 pm - 10:00 pm\t\r\nThu\t11:30 am - 1:30 pm and 6:00 pm - 10:00 pm\t\r\nFri 11:30 am - 1:30 pm and 6:00 pm - 10:30 pm\r\nSat\t5:30 pm - 10:30 pm\r\nSun\tClosed", "image": "restaurant/The_bite_re.jpg", "credit_card": true, "take_reservation": true, "kids_menu": false, "user": 2}}, {"model": "restaurant.restaurant", "pk": 5, "fields": {"name": "Novotelcaf\u00e9", "category": "restaurant", "country": "Switzerland", "street": "Schiffbaustrasse 13", "city": "Z\u00fcrich", "ZIP": "8005", "website": null, "phone": "+41442762272", "opening_hours": "empty", "image": "restaurant/Henrici.jpg", "credit_card": true, "take_reservation": true, "kids_menu": true, "user": 2}}, {"model": "restaurant.restaurant", "pk": 6, "fields": {"name": "les halles", "category": "fast_food", "country": "Switzerland", "street": "Pfingstweidstrasse 6", "city": "Z\u00fcrich", "ZIP": "8005", "website": "halles.ch", "phone": "435436351", "opening_hours": "Mon 11:00 am - 11:30 pm\t\r\nTue 11:00 am - 11:30 pm\t\r\nWed 11:00 am - 11:30 pm\t\r\nThu\t11:00 am - 1:00 am\t\r\nFri\t11:00 am - 2:00 am\r\nSat\t11:00 am - 2:00 am\t\r\nSun\tClosed", "image": "restaurant/les_halles.jpg", "credit_card": false, "take_reservation": true, "kids_menu": false, "user": 2}}, {"model": "restaurant.restaurant", "pk": 7, "fields": {"name": "Pi\u00f9", "category": "fast_food", "country": "Switzerland", "street": "Hardstrasse 259", "city": "Z\u00fcrich", "ZIP": "8005", "website": "piu-ristorante.ch", "phone": "+41433669050", "opening_hours": "Mon 9:00 am - 11:30 pm\t\r\nTue 9:00 am - 11:30 pm\t\r\nWed 9:00 am - 11:30 pm\t\r\nThu 9:00 am - 11:30 pm\t\r\nFri 9:00 am - 11:45 pm\r\nSat 9:00 am - 11:45 pm\t\r\nSun 9:00 am - 11:00 pm", "image": "restaurant/Piu.jpg", "credit_card": true, "take_reservation": true, "kids_menu": true, "user": 2}}, {"model": "restaurant.restaurant", "pk": 8, "fields": {"name": "Nooch", "category": "fast_food", "country": "Switzerland", "street": "Steinfelsareal", "city": "Z\u00fcrich", "ZIP": "8005", "website": "www.nooch.ch", "phone": "+41 43 366 85 35", "opening_hours": "Mon 11:00 am - 11:00 pm\t\r\nTue 11:00 am - 11:00 pm\t\r\nWed 11:00 am - 11:00 pm\t\r\nThu\t11:00 am - 11:00 pm\t\r\nFri 11:00 am - 12:00 am\r\nSat 12:00 pm - 12:00 am\t\r\nSun\t12:00 pm - 11:00 pm", "image": "restaurant/Nooch.jpg", "credit_card": true, "take_reservation": true, "kids_menu": false, "user": 2}}, {"model": "restaurant.restaurant", "pk": 9, "fields": {"name": "Wurst & Moritz", "category": "fast_food", "country": "Switzerland", "street": "Hardstrasse 318", "city": "Z\u00fcrich", "ZIP": "8005", "website": "www.wurstundmoritz.com", "phone": "+41 43 540 41 47", "opening_hours": "Mon 11:00 am - 10:00 pm\t\r\nTue 11:00 am - 10:00 pm\t\r\nWed 11:00 am - 10:00 pm\t\r\nThu 11:00 am - 12:00 am\t\r\nFri 11:00 am - 1:00 am\r\nSat 11:00 am - 1:00 am\t\r\nSun 11:00 am - 10:00 pm", "image": "restaurant/wurst_moritz.jpg", "credit_card": false, "take_reservation": true, "kids_menu": false, "user": 2}}, {"model": "restaurant.restaurant", "pk": 10, "fields": {"name": "Route Twenty-Six", "category": "restaurant", "country": "Switzerland", "street": "Pfingstweidstrasse 100", "city": "Z\u00fcrich", "ZIP": "8005", "website": "www.routetwentysix.ch", "phone": "+41 44 285 40 41", "opening_hours": "Mon 6:30 am - 10:00 am and 11:30 am - 2:00 pm and 6:00 pm - 10:00 pm\t\r\nTue\t6:30 am - 10:00 am and 11:30 am - 2:00 pm and 6:00 pm - 10:00 pm\t\r\nWed 6:30 am - 10:00 am and 11:30 am - 2:00 pm and 6:00 pm - 10:00 pm\t\r\nThu\t6:30 am - 10:00 am and 11:30 am - 2:00 pm and 6:00 pm - 10:00 pm\t\r\nFri\t6:30 am - 10:00 am and 11:30 am - 2:00 pm and 6:00 pm - 10:00 pm\r\nSat\t6:30 am - 11:30 am and 6:00 pm - 10:00 pm\t\r\nSun\t6:30 am - 11:30 am and 6:00 pm - 10:00 pm", "image": "restaurant/route_twenty_six.jpg", "credit_card": true, "take_reservation": true, "kids_menu": false, "user": 2}}, {"model": "restaurant.restaurant", "pk": 11, "fields": {"name": "Angkor", "category": "restaurant", "country": "Switzerland", "street": "Giessereistrasse 18", "city": "Z\u00fcrich", "ZIP": "8005", "website": "restaurant-angkor.ch", "phone": "+41 43 205 28 88", "opening_hours": "Mon 11:30 am - 2:00 pm and 6:00 pm - 11:00 pm\t\r\nTue\t11:30 am - 2:00 pm and 6:00 pm - 11:00 pm\t\r\nWed 11:30 am - 2:00 pm and 6:00 pm - 11:00 pm \r\nThu\t11:30 am - 2:00 pm and 6:00 pm - 11:00 pm\t\r\nFri\t11:30 am - 2:00 pm and 6:00 pm - 11:00 pm\r\nSat\t6:00 pm - 11:00 pm\t\r\nSun\tClosed", "image": "restaurant/Angkor.jpg", "credit_card": true, "take_reservation": true, "kids_menu": true, "user": 2}}, {"model": "restaurant.restaurant", "pk": 12, "fields": {"name": "Noodle House", "category": "restaurant", "country": "Switzerland", "street": "Giessereistrasse 18", "city": "Z\u00fcrich", "ZIP": "8005", "website": "none", "phone": "+41 43 205 28 88", "opening_hours": "none", "image": "restaurant/noodleHause.jpg", "credit_card": true, "take_reservation": false, "kids_menu": false, "user": 2}}, {"model": "restaurant.restaurant", "pk": 13, "fields": {"name": "Restaurant Markthalle", "category": "restaurant", "country": "Switzerland", "street": "Limmatstrasse 231", "city": "Z\u00fcrich", "ZIP": "8005", "website": "www.restaurant-markthalle.ch", "phone": "+41 44 201 00 60", "opening_hours": "Mon 9:00 am - 11:00 pm\t\r\nTue\t9:00 am - 12:00 am\t\r\nWed 9:00 am - 12:00 am\t\r\nThu\t9:00 am - 12:00 am\t\r\nFri\t9:00 am - 12:00 am\r\nSat\t9:00 am - 12:00 am\t\r\nSun\tClosed", "image": "restaurant/Restaurant_Markthall.jpg", "credit_card": true, "take_reservation": true, "kids_menu": false, "user": 1}}, {"model": "restaurant.restaurant", "pk": 14, "fields": {"name": "Sph\u00e8res", "category": "cafe", "country": "Switzerland", "street": "Hardturmstrasse 66", "city": "Z\u00fcrich", "ZIP": "8005", "website": "spheres.cc", "phone": "+41 44 440 66 22", "opening_hours": "Mon 8:00 am - 12:00 am\t\r\nTue\t8:00 am - 12:00 am\t\r\nWed 8:00 am - 12:00 am\t\r\nThu\t8:00 am - 12:00 am\t\r\nFri\t8:00 am - 12:00 am\r\nSat\t9:30 am - 7:30 pm\t\r\nSun\t9:30 am - 7:30 pm", "image": "restaurant/Spheres.jpg", "credit_card": true, "take_reservation": false, "kids_menu": true, "user": 2}}, {"model": "restaurant.restaurant", "pk": 15, "fields": {"name": "Caf\u00e9 Noir", "category": "cafe", "country": "Switzerland", "street": "Neugasse 33", "city": "Z\u00fcrich", "ZIP": "8005", "website": "cafe-noir.ch", "phone": "+41 44 558 34 10", "opening_hours": "Mon 7:00 am - 8:00 pm\t\r\nTue\t7:00 am - 8:00 pm\t\r\nWed 7:00 am - 8:00 pm\t\r\nThu\t7:00 am - 8:00 pm\t\r\nFri\t7:00 am - 8:00 pm\r\nSat\t9:00 am - 6:00 pm\t\r\nSun\tClosed", "image": "restaurant/Cafe_Noir.jpg", "credit_card": false, "take_reservation": false, "kids_menu": false, "user": 2}}, {"model": "restaurant.restaurant", "pk": 16, "fields": {"name": "Kafi Dihei", "category": "cafe", "country": "Switzerland", "street": "Zurlindenstrasse 231", "city": "Z\u00fcrich", "ZIP": "8005", "website": "kafidihei.ch", "phone": "+41 44 557 43 48", "opening_hours": "Mon 8:30 am - 10:00 pm\t\r\nTue\tClosed\t\r\nWed 8:30 am - 10:00 pm\t\r\nThu\t8:30 am - 10:00 pm\t\r\nFri\t8:30 am - 10:00 pm\r\nSat\t9:00 am - 6:00 pm\t\r\nSun\t9:00 am - 6:00 pm", "image": "restaurant/Kafi_Dihei.jpg", "credit_card": true, "take_reservation": true, "kids_menu": false, "user": 2}}, {"model": "restaurant.restaurant", "pk": 17, "fields": {"name": "Ambrosi", "category": "cafe", "country": "Switzerland", "street": "Viaduktstrasse 37", "city": "Z\u00fcrich", "ZIP": "8005", "website": "ambrosi.ch", "phone": "+41 43 960 36 06", "opening_hours": "Mon 8:00 am - 12:00 am\t\r\nTue 8:00 am - 12:00 am\t\r\nWed 8:00 am - 12:00 am\t\r\nThu\t8:00 am - 12:00 am\t\r\nFri 8:00 am - 2:00 am\r\nSat\t10:00 am - 2:00 am\t\r\nSun\t10:00 am - 12:00 am", "image": "restaurant/Ambrosi.jpg", "credit_card": false, "take_reservation": true, "kids_menu": false, "user": 2}}, {"model": "restaurant.restaurant", "pk": 18, "fields": {"name": "Coppolini", "category": "cafe", "country": "Switzerland", "street": "Pfingstweidstrasse 102", "city": "Z\u00fcrich", "ZIP": "8005", "website": "coppolini.ch", "phone": "+41 44 928 21 10", "opening_hours": "Mon 9:00 am - 3:00 pm\t\r\nTue\t9:00 am - 3:00 pm\t\r\nWed 9:00 am - 3:00 pm\t\r\nThu\t9:00 am - 11:00 pm\t\r\nFri\t9:00 am - 11:00 pm\r\nSat\t6:00 pm - 11:00 pm\t\r\nSun\tClosed", "image": "restaurant/Coppolini.jpg", "credit_card": true, "take_reservation": true, "kids_menu": true, "user": 2}}, {"model": "restaurant.restaurant", "pk": 19, "fields": {"name": "Auer & Co.", "category": "cafe", "country": "Switzerland", "street": "Sihlquai 131", "city": "Z\u00fcrich", "ZIP": "8005", "website": null, "phone": "+41 79 689 27 77", "opening_hours": "Mon 8:00 am - 10:00 pm\t\r\nTue\t8:00 am - 10:00 pm\t\r\nWed 8:00 am - 10:00 pm\t\r\nThu\t8:00 am - 1:00 am\t\r\nFri\t8:00 am - 1:00 am\r\nSat\t10:00 am - 7:00 pm\t\r\nSun\t10:00 am - 7:00 pm", "image": "restaurant/Auer.jpg", "credit_card": false, "take_reservation": false, "kids_menu": false, "user": 2}}, {"model": "restaurant.restaurant", "pk": 20, "fields": {"name": "Steiner Flughafebeck", "category": "cafe", "country": "Switzerland", "street": "Turbinenstrasse 22", "city": "Z\u00fcrich", "ZIP": "8005", "website": "flughafebeck.ch", "phone": "+41 44 210 09 30", "opening_hours": "Mon 6:30 am - 7:00 pm\t\r\nTue\t6:30 am - 7:00 pm\t\r\nWed 6:30 am - 7:00 pm\t\r\nThu\t6:30 am - 7:00 pm\t\r\nFri 6:30 am - 7:00 pm\r\nSat 7:00 am - 3:00 pm\t\r\nSun 8:00 am - 4:00 pm", "image": "restaurant/Steiner_Flughafebeck_re.jpg", "credit_card": false, "take_reservation": false, "kids_menu": true, "user": 2}}, {"model": "restaurant.restaurant", "pk": 21, "fields": {"name": "Josefwiese", "category": "cafe", "country": "Switzerland", "street": "Josefstrasse 197", "city": "Z\u00fcrich", "ZIP": "8005", "website": "kioskjosefwiese.ch", "phone": "+41 44 272 94 71", "opening_hours": "None", "image": "restaurant/Josefwiese.jpg", "credit_card": false, "take_reservation": false, "kids_menu": true, "user": 2}}, {"model": "restaurant.restaurant", "pk": 22, "fields": {"name": "Nordbr\u00fccke", "category": "cafe", "country": "Switzerland", "street": "Dammstrasse 58", "city": "Z\u00fcrich", "ZIP": "8005", "website": "www.nordbruecke.ch", "phone": "435436351", "opening_hours": "Mon 4:00 pm - 1:00 am\t\r\nTue\t7:30 am - 1:00 am\t\r\nWed 7:30 am - 1:00 am\t\r\nThu\t7:30 am - 1:00 am\t\r\nFri 7:30 am - 2:00 am\t\r\nSat 9:00 am - 2:00 am\t\r\nSun 9:00 am - 12:00 am", "image": "restaurant/Nordbreucke.jpg", "credit_card": false, "take_reservation": true, "kids_menu": false, "user": 2}}]